NOAA 1 [-]              
1 04793U 70106A   23255.75867719 -.00000031  00000+0  79386-4 0  9995
2 04793 101.4946 311.9685 0031844 160.3210 313.2802 12.54018448414281
NOAA 2 (ITOS-D) [-]     
1 06235U 72082A   23255.87119807 -.00000021  00000+0  16193-3 0  9999
2 06235 101.9991 246.8244 0003783 295.5250 123.8955 12.53167231328644
NOAA 3 [-]              
1 06920U 73086A   23255.86264899 -.00000024  00000+0  16702-3 0  9995
2 06920 102.2556 244.6654 0006364 174.9684 244.9955 12.40357840256880
NOAA 4 [-]              
1 07529U 74089A   23255.84867255 -.00000024  00000+0  13861-3 0  9991
2 07529 101.9645 242.8064 0008876 321.9842  99.8813 12.53171451233214
NOAA 5 [-]              
1 09057U 76077A   23255.84670302 -.00000008  00000+0  29015-3 0  9993
2 09057 102.1631 225.2278 0010164  27.4325  40.2895 12.37788627129719
TIROS N [-]             
1 11060U 78096A   23255.70192485  .00000222  00000+0  12741-3 0  9994
2 11060  98.5754 300.9451 0009449 280.9317  79.0796 14.18625238535726
NOAA 6 [-]              
1 11416U 79057A   23256.05522951  .00000555  00000+0  21393-3 0  9993
2 11416  98.6508 272.3974 0010407   9.2590 350.8784 14.34151766306598
NOAA 7 [-]              
1 12553U 81059A   23255.72622612  .00000081  00000+0  62536-4 0  9998
2 12553  98.9383 309.1991 0010518 268.2288  91.7681 14.17435802181862
NOAA 8 [-]              
1 13923U 83022A   23256.40695944  .00000329  00000+0  14749-3 0  9993
2 13923  98.7187 251.0978 0014475 329.2546  30.7786 14.29037817107353
NOAA 9 [-]              
1 15427U 84123A   23255.93801900  .00000274  00000+0  16133-3 0  9993
2 15427  99.0980 241.8745 0014333 327.5199  86.3982 14.16409734   899
NOAA 10 [-]             
1 16969U 86073A   23256.49753206  .00000291  00000+0  13355-3 0  9990
2 16969  98.6126 240.5173 0013295  67.0516  42.9239 14.28414934925760
NOAA 11 [-]             
1 19531U 88089A   23256.41591009  .00000127  00000+0  86057-4 0  9998
2 19531  98.4759 226.8832 0010401 318.9199  41.1192 14.15426016805146
NOAA 12 [-]             
1 21263U 91032A   23256.39417914  .00000220  00000+0  10982-3 0  9991
2 21263  98.5388 249.1269 0014880  93.8994 266.3888 14.26158472681548
NOAA 13 [-]             
1 22739U 93050A   23255.88270660  .00000239  00000+0  15044-3 0  9994
2 22739  98.5626 219.6286 0010338 124.5329 235.6822 14.13038688551186
NOAA 14 [-]             
1 23455U 94089A   23256.06684454  .00000120  00000+0  83962-4 0  9998
2 23455  98.4280 262.6503 0010648 101.4140 258.8231 14.14298256480920
NOAA 15 [B]             
1 25338U 98030A   23256.33330514  .00000308  00000+0  14586-3 0  9998
2 25338  98.6015 283.8648 0011304  60.3891 299.8414 14.26387533317827
NOAA 16 [-]             
1 26536U 00055A   23255.82702380  .00000131  00000+0  92062-4 0  9996
2 26536  98.5755 302.5776 0009624 317.4011  42.6415 14.13462469481253
NOAA 17 [-]             
1 27453U 02032A   23255.82865167  .00000311  00000+0  15072-3 0  9990
2 27453  98.7220 202.2103 0012635  41.0895 319.1234 14.25358444103293
NOAA 18 [B]             
1 28654U 05018A   23256.36870056  .00000381  00000+0  22771-3 0  9995
2 28654  98.9040 330.3115 0015192 128.6220 231.6315 14.13004508944028
NOAA 19 [+]             
1 33591U 09005A   23256.35348460  .00000316  00000+0  19468-3 0  9996
2 33591  99.0919 303.6572 0013692 359.2866   0.8284 14.12819514752390
SUOMI NPP [+]           
1 37849U 11061A   23256.42584453  .00000170  00000+0  10104-3 0  9999
2 37849  98.7075 193.6555 0001350  65.1110  43.6115 14.19565302615453
NOAA 20 [+]             
1 43013U 17073A   23256.43965560  .00000183  00000+0  10745-3 0  9996
2 43013  98.7154 193.5130 0000850 104.1507 255.9764 14.19562720301492
NOAA 21 (JPSS-2) [+]    
1 54234U 22150A   23255.82105842  .00000161  00000+0  97133-4 0  9999
2 54234  98.7191 192.4115 0001295 106.7971 253.3347 14.19545562 43484
